NORAD_CAT_ID,OBJECT_NAME,OBJECT_TYPE,EPOCH,MEAN_MOTION,ECCENTRICITY,INCLINATION,RA_OF_ASC_NODE,ARG_OF_PERICENTER,MEAN_ANOMALY,BSTAR,MEAN_MOTION_DOT,MEAN_MOTION_DDOT,TLE_LINE0,TLE_LINE1,TLE_LINE2,SEMIMAJOR_AXIS,PERIOD,APOGEE,PERIGEE,DECAYED
51974.0,STARLINK-3672,PAYLOAD,2022-07-12 22:00:00,15.08879928,0.0001743,53.2143,265.6316,45.26,106.004,-0.0035111,-0.00055796,0.0,0 STARLINK-3672,1 51974U 22025U   22193.91667824 -.00055796  00000-0 -35111-2 0  9994,2 51974  53.2143 265.6316 0001743  45.2600 106.0040 15.08879928  1309,6917.7580000000025,95.435,540.8290000000002,538.418,0.0
51974.0,STARLINK-3672,PAYLOAD,2022-07-13 06:00:00,15.08870393,0.0001641999999999,53.2145,264.135,47.0174,115.86,-0.002534,-0.00040424,0.0,0 STARLINK-3672,1 51974U 22025U   22194.25001157 -.00040424  00000-0 -25340-2 0  9998,2 51974  53.2145 264.1350 0001642  47.0174 115.8600 15.08870393 20686,6917.7869999999975,95.436,540.788,538.5169999999998,0.0
51974.0,STARLINK-3672,PAYLOAD,2022-07-13 14:00:01,15.08818732,0.0001815,53.2141,262.6402,39.6846,134.8057,0.00093402,0.000146,0.0,0 STARLINK-3672,1 51974U 22025U   22194.58334491  .00014600  00000-0  93402-3 0  9994,2 51974  53.2141 262.6402 0001815  39.6846 134.8057 15.08818732  1302,6917.945,95.439,541.066,538.555,0.0
51974.0,STARLINK-3672,PAYLOAD,2022-07-13 22:00:00,15.08817455,0.000168,53.2137,261.1424,43.9725,142.0928,-0.0011719,-0.00018879,0.0,0 STARLINK-3672,1 51974U 22025U   22194.91667824 -.00018879  00000-0 -11719-2 0  9994,2 51974  53.2137 261.1424 0001680  43.9725 142.0928 15.08817455  1308,6917.949000000001,95.439,540.977,538.6519999999998,0.0
51974.0,STARLINK-3672,PAYLOAD,2022-07-14 08:00:01,15.08830417,0.0001715,53.2135,259.2725,45.9381,244.5732,-0.0012215,-0.00019671,0.0,0 STARLINK-3672,1 51974U 22025U   22195.33334491 -.00019671  00000-0 -12215-2 0  9995,2 51974  53.2135 259.2725 0001715  45.9381 244.5732 15.08830417 20841,6917.91,95.438,540.961,538.5880000000002,0.0
51974.0,STARLINK-3672,PAYLOAD,2022-07-14 14:00:01,15.08795417,0.0001853,53.2141,258.1512,41.9828,167.2097,0.0026212,0.00041624,0.0,0 STARLINK-3672,1 51974U 22025U   22195.58334491  .00041624  00000-0  26212-2 0  9995,2 51974  53.2141 258.1512 0001853  41.9828 167.2097 15.08795417  1300,6918.017,95.44,541.164,538.6,0.0
51974.0,STARLINK-3672,PAYLOAD,2022-07-14 22:00:00,15.0882283,0.0001683,53.2145,256.6532,45.4655,175.2908,-0.00011073,-2.049e-05,0.0,0 STARLINK-3672,1 51974U 22025U   22195.91667824 -.00002049  00000-0 -11073-3 0  9991,2 51974  53.2145 256.6532 0001683  45.4655 175.2908 15.08822830  1307,6917.933000000001,95.439,540.962,538.634,0.0
51974.0,STARLINK-3672,PAYLOAD,2022-07-15 06:00:00,15.08840498,0.0001686999999999,53.2149,255.1571,48.9144,183.4098,-0.00067066,-0.00010946,0.0,0 STARLINK-3672,1 51974U 22025U   22196.25001157 -.00010946  00000-0 -67066-3 0  9998,2 51974  53.2149 255.1571 0001687  48.9144 183.4098 15.08840498 20989,6917.879,95.438,540.911,538.577,0.0
51974.0,STARLINK-3672,PAYLOAD,2022-07-15 14:00:01,15.08816558,0.0001871,53.2145,253.6621,42.752,201.175,0.0031881,0.00050784,0.0,0 STARLINK-3672,1 51974U 22025U   22196.58334491  .00050784  00000-0  31881-2 0  9991,2 51974  53.2145 253.6621 0001871  42.7520 201.1750 15.08816558  1307,6917.9519999999975,95.439,541.111,538.523,0.0
51974.0,STARLINK-3672,PAYLOAD,2022-07-15 22:00:00,15.08839334,0.0001709,53.2143,252.1639,46.2102,209.305,0.00049473,7.594e-05,0.0,0 STARLINK-3672,1 51974U 22025U   22196.91667824  .00007594  00000-0  49473-3 0  9995,2 51974  53.2143 252.1639 0001709  46.2102 209.3050 15.08839334  1303,6917.882,95.438,540.93,538.565,0.0
51974.0,STARLINK-3672,PAYLOAD,2022-07-16 06:00:00,15.08866457,0.0001717,53.2141,250.6677,48.6474,218.4584,-0.0013249,-0.00021327,0.0,0 STARLINK-3672,1 51974U 22025U   22197.25001157 -.00021327  00000-0 -13249-2 0  9997,2 51974  53.2141 250.6677 0001717  48.6474 218.4584 15.08866457 21135,6917.8,95.436,540.852,538.477,0.0
51974.0,STARLINK-3672,PAYLOAD,2022-07-16 14:00:01,15.08825749,0.0001859,53.214,249.1726,40.8882,237.8419,0.0012991,0.0002044,0.0,0 STARLINK-3672,1 51974U 22025U   22197.58334491  .00020440  00000-0  12991-2 0  9999,2 51974  53.2140 249.1726 0001859  40.8882 237.8419 15.08825749  1304,6917.924,95.438,541.075,538.503,0.0
51974.0,STARLINK-3672,PAYLOAD,2022-07-16 22:00:00,15.08829537,0.0001686999999999,53.214,247.6742,43.4899,246.8371,0.0011757999999999,0.00018469,0.0,0 STARLINK-3672,1 51974U 22025U   22197.91667824  .00018469  00000-0  11758-2 0  9993,2 51974  53.2140 247.6742 0001687  43.4899 246.8371 15.08829537  1307,6917.9119999999975,95.438,540.944,538.61,0.0
51974.0,STARLINK-3672,PAYLOAD,2022-07-17 06:00:00,15.08861182,0.0001733,53.2141,246.178,45.5014,256.4117,-0.00086426,-0.00014025,0.0,0 STARLINK-3672,1 51974U 22025U   22198.25001157 -.00014025  00000-0 -86426-3 0  9993,2 51974  53.2141 246.1780 0001733  45.5014 256.4117 15.08861182 21284,6917.816,95.436,540.88,538.482,0.0
51974.0,STARLINK-3672,PAYLOAD,2022-07-17 14:00:01,15.0884249,0.0001877,53.214,244.6829,38.3775,275.1491,0.00024736,3.651e-05,0.0,0 STARLINK-3672,1 51974U 22025U   22198.58334491  .00003651  00000-0  24736-3 0  9996,2 51974  53.2140 244.6829 0001877  38.3775 275.1491 15.08842490  1308,6917.873000000001,95.437,541.036,538.439,0.0
51974.0,STARLINK-3672,PAYLOAD,2022-07-17 22:00:00,15.08813923,0.0001686,53.2143,243.1845,40.8712,284.2498,0.0015505,0.00024457,0.0,0 STARLINK-3672,1 51974U 22025U   22198.91667824  .00024457  00000-0  15505-2 0  9992,2 51974  53.2143 243.1845 0001686  40.8712 284.2498 15.08813923  1307,6917.96,95.439,540.991,538.659,0.0
51974.0,STARLINK-3672,PAYLOAD,2022-07-18 14:00:01,15.08818585,0.000193,53.2145,240.1932,37.0621,311.2282,0.0027891,0.00044355,0.0,0 STARLINK-3672,1 51974U 22025U   22199.58334491  .00044355  00000-0  27891-2 0  9997,2 51974  53.2145 240.1932 0001930  37.0621 311.2282 15.08818585  1303,6917.946,95.439,541.146,538.476,0.0
51974.0,STARLINK-3672,PAYLOAD,2022-07-18 16:00:00,15.08841244,0.0001921,53.2144,239.8186,36.7732,44.4075,0.00025337,3.747e-05,0.0,0 STARLINK-3672,1 51974U 22025U   22199.66667824  .00003747  00000-0  25337-3 0  9999,2 51974  53.2144 239.8186 0001921  36.7732  44.4075 15.08841244 21492,6917.877,95.437,541.071,538.413,0.0
51974.0,STARLINK-3672,PAYLOAD,2022-07-18 22:00:00,15.0882559,0.000176,53.2152,238.695,41.6984,318.1884,0.0020555,0.00032564,0.0,0 STARLINK-3672,1 51974U 22025U   22199.91667824  .00032564  00000-0  20555-2 0  9992,2 51974  53.2152 238.6950 0001760  41.6984 318.1884 15.08825590  1305,6917.924,95.438,541.007,538.572,0.0
51974.0,STARLINK-3672,PAYLOAD,2022-07-19 14:00:01,15.08809831,0.0002075,53.2151,235.7036,40.2601,342.8205,0.0024438,0.00038788,0.0,0 STARLINK-3672,1 51974U 22025U   22200.58334491  .00038788  00000-0  24438-2 0  9997,2 51974  53.2151 235.7036 0002075  40.2601 342.8205 15.08809831  1309,6917.973000000001,95.439,541.273,538.4019999999998,0.0
51974.0,STARLINK-3672,PAYLOAD,2022-07-19 22:00:00,15.08818046,0.0001881,53.2163,234.206,42.286,352.3797,0.0013041,0.00020515,0.0,0 STARLINK-3672,1 51974U 22025U   22200.91667824  .00020515  00000-0  13041-2 0  9990,2 51974  53.2163 234.2060 0001881  42.2860 352.3797 15.08818046  1306,6917.946999999999,95.439,541.114,538.511,0.0
51974.0,STARLINK-3672,PAYLOAD,2022-07-20 14:00:01,15.08839844,0.0002084,53.2153,231.2143,40.0029,17.8537,0.0011617,0.00018249,0.0,0 STARLINK-3672,1 51974U 22025U   22201.58334491  .00018249  00000-0  11617-2 0  9993,2 51974  53.2153 231.2143 0002084  40.0029  17.8537 15.08839844  1307,6917.880999999999,95.438,541.188,538.304,0.0
51974.0,STARLINK-3672,PAYLOAD,2022-07-20 22:00:01,15.08815236,0.0001821999999999,53.2155,229.7161,44.0787,25.4532,0.0011324999999999,0.0001776999999999,0.0,0 STARLINK-3672,1 51974U 22025U   22201.91668981  .00017770  00000-0  11325-2 0  9998,2 51974  53.2155 229.7161 0001822  44.0787  25.4532 15.08815236 21834,6917.956,95.439,541.082,538.561,0.0
51974.0,STARLINK-3672,PAYLOAD,2022-07-21 14:00:01,15.08815129,0.0002025,53.2151,226.725,38.7423,53.9795,0.0013406,0.00021098,0.0,0 STARLINK-3672,1 51974U 22025U   22202.58335648  .00021098  00000-0  13406-2 0  9993,2 51974  53.2151 226.7250 0002025  38.7423  53.9795 15.08815129  1307,6917.956,95.439,541.222,538.4209999999998,0.0
51974.0,STARLINK-3672,PAYLOAD,2022-07-21 22:00:00,15.08801227,0.00018,53.2152,225.2271,44.038,60.1988,0.0025651999999999,0.0004073,0.0,0 STARLINK-3672,1 51974U 22025U   22202.91667824  .00040730  00000-0  25652-2 0  9994,2 51974  53.2152 225.2271 0001800  44.0380  60.1988 15.08801227 21992,6917.999,95.44,541.109,538.619,0.0
51974.0,STARLINK-3672,PAYLOAD,2022-07-22 06:00:00,15.08841211,0.0001932,53.2151,223.7319,43.6944,72.1079,-0.0018795,-0.00030078,0.0,0 STARLINK-3672,1 51974U 22025U   22203.25001157 -.00030078  00000-0 -18795-2 0  9999,2 51974  53.2151 223.7319 0001932  43.6944  72.1079 15.08841211  1308,6917.877,95.437,541.078,538.405,0.0
51974.0,STARLINK-3672,PAYLOAD,2022-07-22 12:00:00,15.08807434,0.0002035,53.2149,222.6105,40.8293,353.6675,0.0026331999999999,0.00041831,0.0,0 STARLINK-3672,1 51974U 22025U   22203.50001157  .00041831  00000-0  26332-2 0  9990,2 51974  53.2149 222.6105 0002035  40.8293 353.6675 15.08807434 22072,6917.98,95.44,541.253,538.437,0.0
51974.0,STARLINK-3672,PAYLOAD,2022-07-22 22:00:00,15.08810951,0.0001841999999999,53.2145,220.7381,45.8017,93.1743,0.0025423,0.00040373,0.0,0 STARLINK-3672,1 51974U 22025U   22203.91667824  .00040373  00000-0  25423-2 0  9994,2 51974  53.2145 220.7381 0001842  45.8017  93.1743 15.08810951  1300,6917.969,95.439,541.1080000000002,538.56,0.0
51974.0,STARLINK-3672,PAYLOAD,2022-07-23 08:00:01,15.08832977,0.0002058,53.2143,218.8693,43.7455,199.7069,-0.00038738,-6.447e-05,0.0,0 STARLINK-3672,1 51974U 22025U   22204.33334491 -.00006447  00000-0 -38738-3 0  9992,2 51974  53.2143 218.8693 0002058  43.7455 199.7069 15.08832977 22203,6917.901999999999,95.438,541.191,538.3430000000002,0.0
